ONEWEB-0032             
1 45141U 20008L   23265.85657236 -.00000342  00000+0 -10174-2 0  9990
2 45141  87.8846 234.5539 0002106  83.0468 277.0899 13.10369292177550
ONEWEB-0033             
1 45142U 20008M   23265.90695651  .00000697  00000+0  19604-2 0  9998
2 45142  87.8851 234.5513 0002002  72.3919 287.7427 13.10378084177471
ONEWEB-0035             
1 45143U 20008N   23265.86307656 -.00000524  00000+0 -15367-2 0  9992
2 45143  87.8845 234.5343 0002005  78.9896 281.1457 13.10370044177193
ONEWEB-0036             
1 45144U 20008P   23266.00606646  .00000402  00000+0  11149-2 0  9998
2 45144  87.8849 234.4657 0001882  85.6399 274.4944 13.10374112178502
ONEWEB-0038             
1 45145U 20008Q   23265.88856710 -.00000268  00000+0 -79094-3 0  9999
2 45145  87.8959 219.3564 0002745  89.9172 270.2271 13.11415657179485
ONEWEB-0039             
1 45146U 20008R   23265.98655770  .00000677  00000+0  19017-2 0  9994
2 45146  87.8844 234.4905 0001933  98.6624 261.4723 13.10379063178216
ONEWEB-0040             
1 45147U 20008S   23265.90370517  .00000688  00000+0  19355-2 0  9997
2 45147  87.8852 234.4911 0002008  84.1118 276.0239 13.10378343177128
ONEWEB-0041             
1 45148U 20008T   23265.84432868  .00000113  00000+0  15970-3 0  9992
2 45148  87.9430 211.1986 0016354 208.2788 151.7475 13.48414175183502
